{
  "40258": [
    {
      "epoch": "2026-02-25T17:05:57.559204+00:00",
      "mean_motion": 0.9911085400000001,
      "eccentricity": 0.0003308,
      "inclination": 1.6029,
      "raan": 84.1594,
      "arg_perigee": 205.9122,
      "mean_anomaly": 349.4832,
      "bstar": 0.0,
      "tle_line1": "1 40258U 14058A   26056.71247175  .00000069  00000-0  00000+0 0  9994",
      "tle_line2": "2 40258   1.6029  84.1594 0003308 205.9122 349.4832  0.99110854 39861",
      "norad_id": 40258,
      "object_name": "LUCH (OLYMP)"
    },
    {
      "epoch": "2026-02-26T03:21:37.752197+00:00",
      "mean_motion": 0.9911100199999999,
      "eccentricity": 0.00033,
      "inclination": 1.6042,
      "raan": 84.1529,
      "arg_perigee": 206.1998,
      "mean_anomaly": 141.7541,
      "bstar": 0.0,
      "tle_line1": "1 40258U 14058A   26057.14002028  .00000065  00000-0  00000+0 0  9994",
      "tle_line2": "2 40258   1.6042  84.1529 0003300 206.1998 141.7541  0.99111002 39866",
      "norad_id": 40258,
      "object_name": "LUCH (OLYMP)"
    },
    {
      "epoch": "2026-02-26T15:27:14.564453+00:00",
      "mean_motion": 0.99111231,
      "eccentricity": 0.0003283,
      "inclination": 1.6056,
      "raan": 84.1453,
      "arg_perigee": 206.68050000000002,
      "mean_anomaly": 321.0758,
      "bstar": 0.0,
      "tle_line1": "1 40258U 14058A   26057.64391857  .00000059  00000-0  00000+0 0  9993",
      "tle_line2": "2 40258   1.6056  84.1453 0003283 206.6805 321.0758  0.99111231 39877",
      "norad_id": 40258,
      "object_name": "LUCH (OLYMP)"
    },
    {
      "epoch": "2026-02-27T01:35:34.761139+00:00",
      "mean_motion": 0.99111401,
      "eccentricity": 0.0003265,
      "inclination": 1.6068,
      "raan": 84.1388,
      "arg_perigee": 207.0444,
      "mean_anomaly": 111.4538,
      "bstar": 0.0,
      "tle_line1": "1 40258U 14058A   26058.06637455  .00000054  00000-0  00000+0 0  9992",
      "tle_line2": "2 40258   1.6068  84.1388 0003265 207.0444 111.4538  0.99111401 39877",
      "norad_id": 40258,
      "object_name": "LUCH (OLYMP)"
    },
    {
      "epoch": "2026-02-27T15:16:29.904663+00:00",
      "mean_motion": 0.99110983,
      "eccentricity": 0.0003189,
      "inclination": 1.6085,
      "raan": 84.1318,
      "arg_perigee": 207.0422,
      "mean_anomaly": 314.8729,
      "bstar": 0.0,
      "tle_line1": "1 40258U 14058A   26058.63645723  .00000046  00000-0  00000+0 0  9993",
      "tle_line2": "2 40258   1.6085  84.1318 0003189 207.0422 314.8729  0.99110983 39886",
      "norad_id": 40258,
      "object_name": "LUCH (OLYMP)"
    },
    {
      "epoch": "2026-02-27T18:41:17.772278+00:00",
      "mean_motion": 0.99111978,
      "eccentricity": 0.0003232,
      "inclination": 1.6089,
      "raan": 84.1289,
      "arg_perigee": 207.7752,
      "mean_anomaly": 4.8896,
      "bstar": 0.0,
      "tle_line1": "1 40258U 14058A   26058.77867792  .00000045  00000-0  00000+0 0  9999",
      "tle_line2": "2 40258   1.6089  84.1289 0003232 207.7752   4.8896  0.99111978 39885",
      "norad_id": 40258,
      "object_name": "LUCH (OLYMP)"
    },
    {
      "epoch": "2026-03-02T01:25:10.675751+00:00",
      "mean_motion": 0.9911296,
      "eccentricity": 0.0003069,
      "inclination": 1.6152,
      "raan": 84.0968,
      "arg_perigee": 210.1308,
      "mean_anomaly": 96.2651,
      "bstar": 0.0,
      "tle_line1": "1 40258U 14058A   26061.05915134  .00000009  00000-0  00000+0 0  9998",
      "tle_line2": "2 40258   1.6152  84.0968 0003069 210.1308  96.2651  0.99112960 39901",
      "norad_id": 40258,
      "object_name": "LUCH (OLYMP)"
    },
    {
      "epoch": "2026-03-02T11:24:31.807281+00:00",
      "mean_motion": 0.9911318000000001,
      "eccentricity": 0.0003046,
      "inclination": 1.6163,
      "raan": 84.0914,
      "arg_perigee": 210.582,
      "mean_anomaly": 244.3314,
      "bstar": 0.0,
      "tle_line1": "1 40258U 14058A   26061.47536814  .00000002  00000-0  00000+0 0  9991",
      "tle_line2": "2 40258   1.6163  84.0914 0003046 210.5820 244.3314  0.99113180 39910",
      "norad_id": 40258,
      "object_name": "LUCH (OLYMP)"
    },
    {
      "epoch": "2026-03-02T16:48:33.504211+00:00",
      "mean_motion": 0.99113317,
      "eccentricity": 0.0003018,
      "inclination": 1.6169,
      "raan": 84.08940000000001,
      "arg_perigee": 210.9955,
      "mean_anomaly": 324.2103,
      "bstar": 0.0,
      "tle_line1": "1 40258U 14058A   26061.70038778 -.00000002  00000-0  00000+0 0  9994",
      "tle_line2": "2 40258   1.6169  84.0894 0003018 210.9955 324.2103  0.99113317 39911",
      "norad_id": 40258,
      "object_name": "LUCH (OLYMP)"
    },
    {
      "epoch": "2026-03-03T03:04:08.266937+00:00",
      "mean_motion": 0.99113557,
      "eccentricity": 0.0002974,
      "inclination": 1.618,
      "raan": 84.0836,
      "arg_perigee": 211.5656,
      "mean_anomaly": 116.17930000000001,
      "bstar": 0.0,
      "tle_line1": "1 40258U 14058A   26062.12787346 -.00000010  00000-0  00000+0 0  9992",
      "tle_line2": "2 40258   1.6180  84.0836 0002974 211.5656 116.1793  0.99113557 39914",
      "norad_id": 40258,
      "object_name": "LUCH (OLYMP)"
    },
    {
      "epoch": "2026-03-03T11:42:07.864105+00:00",
      "mean_motion": 0.99113751,
      "eccentricity": 0.0002962,
      "inclination": 1.619,
      "raan": 84.0782,
      "arg_perigee": 211.9304,
      "mean_anomaly": 244.1732,
      "bstar": 0.0,
      "tle_line1": "1 40258U 14058A   26062.48759102 -.00000017  00000-0  00000+0 0  9997",
      "tle_line2": "2 40258   1.6190  84.0782 0002962 211.9304 244.1732  0.99113751 39928",
      "norad_id": 40258,
      "object_name": "LUCH (OLYMP)"
    },
    {
      "epoch": "2026-03-03T18:27:35.570007+00:00",
      "mean_motion": 0.9911393399999999,
      "eccentricity": 0.0002936,
      "inclination": 1.6197,
      "raan": 84.0741,
      "arg_perigee": 212.2263,
      "mean_anomaly": 344.3508,
      "bstar": 0.0,
      "tle_line1": "1 40258U 14058A   26062.76916169 -.00000022  00000-0  00000+0 0  9992",
      "tle_line2": "2 40258   1.6197  84.0741 0002936 212.2263 344.3508  0.99113934 39926",
      "norad_id": 40258,
      "object_name": "LUCH (OLYMP)"
    },
    {
      "epoch": "2026-03-04T03:00:35.787750+00:00",
      "mean_motion": 0.99114146,
      "eccentricity": 0.0002906,
      "inclination": 1.6206,
      "raan": 84.0697,
      "arg_perigee": 212.6034,
      "mean_anomaly": 111.095,
      "bstar": 0.0,
      "tle_line1": "1 40258U 14058A   26063.12541421 -.00000030  00000-0  00000+0 0  9997",
      "tle_line2": "2 40258   1.6206  84.0697 0002906 212.6034 111.0950  0.99114146 39920",
      "norad_id": 40258,
      "object_name": "LUCH (OLYMP)"
    },
    {
      "epoch": "2026-03-04T04:59:38.654602+00:00",
      "mean_motion": 0.99114186,
      "eccentricity": 0.0002901,
      "inclination": 1.6209,
      "raan": 84.06860000000002,
      "arg_perigee": 212.7005,
      "mean_anomaly": 140.4979,
      "bstar": 0.0,
      "tle_line1": "1 40258U 14058A   26063.20808628 -.00000031  00000-0  00000+0 0  9992",
      "tle_line2": "2 40258   1.6209  84.0686 0002901 212.7005 140.4979  0.99114186 39926",
      "norad_id": 40258,
      "object_name": "LUCH (OLYMP)"
    },
    {
      "epoch": "2026-03-04T13:41:38.711609+00:00",
      "mean_motion": 0.9911438099999998,
      "eccentricity": 0.0002884,
      "inclination": 1.6218,
      "raan": 84.0638,
      "arg_perigee": 213.1405,
      "mean_anomaly": 269.4099,
      "bstar": 0.0,
      "tle_line1": "1 40258U 14058A   26063.57058694 -.00000039  00000-0  00000+0 0  9990",
      "tle_line2": "2 40258   1.6218  84.0638 0002884 213.1405 269.4099  0.99114381 39935",
      "norad_id": 40258,
      "object_name": "LUCH (OLYMP)"
    },
    {
      "epoch": "2026-03-05T01:14:31.169739+00:00",
      "mean_motion": 0.9911469800000001,
      "eccentricity": 0.0002855,
      "inclination": 1.623,
      "raan": 84.0572,
      "arg_perigee": 213.36750000000004,
      "mean_anomaly": 80.8779,
      "bstar": 0.0,
      "tle_line1": "1 40258U 14058A   26064.05174965 -.00000049  00000-0  00000+0 0  9995",
      "tle_line2": "2 40258   1.6230  84.0572 0002855 213.3675  80.8779  0.99114698 39936",
      "norad_id": 40258,
      "object_name": "LUCH (OLYMP)"
    },
    {
      "epoch": "2026-03-05T14:55:21.348755+00:00",
      "mean_motion": 0.9911498900000001,
      "eccentricity": 0.0002815,
      "inclination": 1.6245,
      "raan": 84.0498,
      "arg_perigee": 214.2017,
      "mean_anomaly": 283.4481,
      "bstar": 0.0,
      "tle_line1": "1 40258U 14058A   26064.62177487 -.00000062  00000-0  00000+0 0  9995",
      "tle_line2": "2 40258   1.6245  84.0498 0002815 214.2017 283.4481  0.99114989 39940",
      "norad_id": 40258,
      "object_name": "LUCH (OLYMP)"
    },
    {
      "epoch": "2026-03-05T18:20:31.676910+00:00",
      "mean_motion": 0.9911506299999999,
      "eccentricity": 0.0002803,
      "inclination": 1.6248,
      "raan": 84.0478,
      "arg_perigee": 214.3882,
      "mean_anomaly": 334.1036,
      "bstar": 0.0,
      "tle_line1": "1 40258U 14058A   26064.76425552 -.00000065  00000-0  00000+0 0  9992",
      "tle_line2": "2 40258   1.6248  84.0478 0002803 214.3882 334.1036  0.99115063 39943",
      "norad_id": 40258,
      "object_name": "LUCH (OLYMP)"
    },
    {
      "epoch": "2026-03-07T07:29:38.616852+00:00",
      "mean_motion": 0.99115794,
      "eccentricity": 0.0002681,
      "inclination": 1.6286,
      "raan": 84.0253,
      "arg_perigee": 216.14250000000004,
      "mean_anomaly": 164.7316,
      "bstar": 0.0,
      "tle_line1": "1 40258U 14058A   26066.31225251 -.00000102  00000-0  00000+0 0  9991",
      "tle_line2": "2 40258   1.6286  84.0253 0002681 216.1425 164.7316  0.99115794 39964",
      "norad_id": 40258,
      "object_name": "LUCH (OLYMP)"
    }
  ],
  "44878": []
}